ONEWEB-0446             
1 51640U 22012U   25115.72424366 -.00000634  00000+0 -18530-2 0  9994
2 51640  87.8795 119.5203 0001936  97.7654 262.3693 13.10372235154659
ONEWEB-0448             
1 51641U 22012V   25115.95829211 -.00000591  00000+0 -17294-2 0  9996
2 51641  87.8795 119.4730 0002011  88.3877 271.7480 13.10373666154659
ONEWEB-0449             
1 51642U 22012W   25115.96327868 -.00000584  00000+0 -17087-2 0  9991
2 51642  87.8790 119.4498 0002472  87.1332 273.0078 13.10374232154669
ONEWEB-0451             
1 51643U 22012X   25115.86365987  .00000045  00000+0  81907-4 0  9999
2 51643  87.9022  88.9400 0002195  86.4870 273.6512 13.17649202158700
ONEWEB-0452             
1 51644U 22012Y   25115.93790951  .00000024  00000+0  27692-4 0  9999
2 51644  87.9029  88.9843 0002272  80.8829 279.2560 13.17649346158723
ONEWEB-0456             
1 51646U 22012AA  25115.97323881 -.00000097  00000+0 -31488-3 0  9998
2 51646  87.8790 119.4088 0001799  87.7316 272.4018 13.10376482154708
ONEWEB-0457             
1 51647U 22012AB  25115.94999595 -.00000475  00000+0 -13966-2 0  9997
2 51647  87.8793 119.4637 0002332  95.4877 264.6516 13.10371846154709
ONEWEB-0458             
1 51648U 22012AC  25115.97158107 -.00000199  00000+0 -60594-3 0  9990
2 51648  87.8782 119.4484 0002045  86.0560 274.0801 13.10376187154664
